[{"OBJECT_NAME":"PRC TEST SPACECRAFT 4","OBJECT_ID":"2026-024A","EPOCH":"2026-03-09T23:05:37.112640","MEAN_MOTION":14.91688392,"ECCENTRICITY":0.00060629,"INCLINATION":49.9868,"RA_OF_ASC_NODE":21.492,"ARG_OF_PERICENTER":1.3709,"MEAN_ANOMALY":358.7249,"EPHEMERIS_TYPE":0,"CLASSIFICATION_TYPE":"U","NORAD_CAT_ID":67689,"ELEMENT_SET_NO":999,"REV_AT_EPOCH":462,"BSTAR":4.4693809e-5,"MEAN_MOTION_DOT":2.1e-6,"MEAN_MOTION_DDOT":0},{"OBJECT_NAME":"ELECTRON KICK STAGE R\/B","OBJECT_ID":"2024-142B","EPOCH":"2026-03-09T15:23:52.223424","MEAN_MOTION":14.92775872,"ECCENTRICITY":0.00111704,"INCLINATION":53.0025,"RA_OF_ASC_NODE":123.5023,"ARG_OF_PERICENTER":159.154,"MEAN_ANOMALY":200.99,"EPHEMERIS_TYPE":0,"CLASSIFICATION_TYPE":"U","NORAD_CAT_ID":60420,"ELEMENT_SET_NO":999,"REV_AT_EPOCH":8568,"BSTAR":0.00040968157,"MEAN_MOTION_DOT":4.033e-5,"MEAN_MOTION_DDOT":0}]
